{"fetched_at":"2026-04-02T02:06:33Z","count":6526,"tles":[{"name":"RASSVET-3 OBJECT H","line1":"1 68367U 26061H   26090.65722354  .00063268  24145-6  22000-3 0  9990","line2":"2 68367  82.2970  99.7109 0026929  44.6140 315.7292 15.88599119  1266","category":"Other"}]}