{
  "norad_id": 68367,
  "name": "RASSVET-3 8",
  "history": [
    {
      "epoch": "2026-03-31T15:46:24.113856Z",
      "apogee_km": 324.2099082236,
      "perigee_km": 288.2093541373888,
      "latitude_deg": 5.4220430930299744e-05,
      "longitude_deg": 34.07897550295311,
      "height_km": 296.5150546470467,
      "semi_major_axis_km": 6684.346631180494,
      "eccentricity": 0.0026929,
      "inclination_deg": 82.297,
      "raan_deg": 99.7109,
      "arg_perigee_deg": 44.614,
      "mean_anomaly_deg": 315.7292,
      "mean_motion_rev_day": 15.88599119
    }
  ]
}